STARLINK-36587          
1 67532U 26014A   26042.59579489  .00164186  00000+0  83840-3 0  9997
2 67532  97.2838 286.2104 0001250  91.3341 268.8071 15.80906587  4469
STARLINK-36417          
1 67533U 26014B   26042.61672216  .00213417  00000+0  13914-2 0  9999
2 67533  97.2843 286.1815 0001393  82.2952 277.8472 15.75270473  4466
STARLINK-36576          
1 67534U 26014C   26042.59440794  .00195101  00000+0  99248-3 0  9995
2 67534  97.2844 286.2125 0001339  77.2798 282.8620 15.80908889  4461
STARLINK-36574          
1 67535U 26014D   26042.59312671  .00298861  00000+0  14961-2 0  9993
2 67535  97.2845 286.2141 0001203  70.3531 289.7867 15.80991482  4460
STARLINK-36572          
1 67536U 26014E   26042.58335648 -.00046438  00000+0 -31218-3 0  9990
2 67536  97.2850 286.1801 0001556  88.6274 160.4225 15.75188253  4490
STARLINK-36561          
1 67537U 26014F   26042.60895955  .00283766  00000+0  18334-2 0  9994
2 67537  97.2850 286.1895 0001242  86.9833 273.1575 15.75283226  4461
STARLINK-36397          
1 67538U 26014G   26042.61283911  .00211924  00000+0  13813-2 0  9993
2 67538  97.2849 286.1849 0001426  85.6900 274.4528 15.75280981  4461
STARLINK-36573          
1 67539U 26014H   26042.58902437  .00293858  00000+0  14764-2 0  9993
2 67539  97.2845 286.2182 0001343  71.8836 288.2578 15.80925464  4468
STARLINK-36585          
1 67540U 26014J   26042.60472282  .00149966  00000+0  98617-3 0  9998
2 67540  97.2860 286.1938 0001139  92.1120 268.0276 15.75250438  4467
STARLINK-36579          
1 67541U 26014K   26042.58335648 -.00034215  00000+0 -22951-3 0  9990
2 67541  97.2852 286.1938 0001373  94.8194 188.2303 15.75182353  4496
STARLINK-35934          
1 67542U 26014L   26042.58538721  .00339168  00000+0  16915-2 0  9993
2 67542  97.2842 286.2228 0001675  56.6703 303.4726 15.80970522  4451
STARLINK-36581          
1 67543U 26014M   26042.58419501  .00217222  00000+0  11018-2 0  9993
2 67543  97.2848 286.2237 0001500  88.2799 271.8641 15.80914202  4469
STARLINK-36565          
1 67544U 26014N   26042.58313590  .00316842  00000+0  15853-2 0  9994
2 67544  97.2842 286.2258 0001505  85.5561 274.5879 15.80957538  4461
STARLINK-36583          
1 67545U 26014P   26042.60084212  .00133983  00000+0  88302-3 0  9997
2 67545  97.2855 286.2006 0001357  76.6234 283.5182 15.75244988  4469
STARLINK-36580          
1 67546U 26014Q   26042.58335648  .00120980  00000+0  80288-3 0  9995
2 67546  97.2851 286.2268 0001872  70.3084 292.7225 15.75121461  4495
STARLINK-36584          
1 67547U 26014R   26042.57974680 -.00014373  00000+0 -74438-4 0  9991
2 67547  97.2778 286.2207 0002942  81.2215 278.9386 15.80803983  4466
STARLINK-36586          
1 67548U 26014S   26042.64166987  .00219159  00000+0  11112-2 0  9998
2 67548  97.2843 286.2994 0001577  86.3029 273.8420 15.80918272  4477
STARLINK-36564          
1 67549U 26014T   26042.58335648 -.00050855  00000+0 -34175-3 0  9997
2 67549  97.2854 286.2084 0001386  79.9701 237.0649 15.75214229  4439
STARLINK-36563          
1 67550U 26014U   26042.58335648 -.00063297  00000+0 -42644-3 0  9993
2 67550  97.2853 286.2166 0001413  78.4840 262.5580 15.75200860  4499
STARLINK-36566          
1 67551U 26014V   26042.58335648 -.00039289  00000+0 -26357-3 0  9991
2 67551  97.2851 286.2233 0001402  85.8500 267.1861 15.75205182  4491
STARLINK-36567          
1 67552U 26014W   26042.59307555  .00153446  00000+0  10085-2 0  9999
2 67552  97.2858 286.2071 0001571 120.5667 239.5753 15.75253559  4457
STARLINK-36569          
1 67553U 26014X   26042.63564885 -.00037593  00000+0 -19614-3 0  9990
2 67553  97.2758 286.2950 0002672 105.9163 254.2400 15.80835853  4467
STARLINK-36395          
1 67554U 26014Y   26042.58743171  .00124069  00000+0  81875-3 0  9993
2 67554  97.2858 286.2158 0001573  81.8991 278.2453 15.75243388  4452
STARLINK-36559          
1 67555U 26014Z   26042.58884297  .00093673  00000+0  62095-3 0  9998
2 67555  97.2857 286.2130 0001607 100.6897 259.4550 15.75229705  4451
MR-1                    
1 67556U 26015A   26042.60093108  .00000010  00000+0 -26400-5 0  9992
2 67556  88.9975 281.3146 0005130  85.2280 274.9458 13.52685912  2739
MR-2                    
1 67557U 26015B   26042.60129785  .00000025  00000+0  19885-4 0  9997
2 67557  88.9974 281.3148 0005186  84.3143 275.8600 13.52660981  2738
ELECTRON R/B            
1 67558U 26015C   26042.68200153  .02417871 -10246-5  15863-2 0  9998
2 67558  88.9922 280.7149 0439037 195.5157 163.2282 15.33245162  3044
ELECTRON KICK STAGE R/B 
1 67559U 26015D   26042.61243899  .00065385  23132-6  11057-2 0  9992
2 67559  89.0513 280.9856 0529949 264.7837  89.2723 14.67829976  2960
STARLINK-36426          
1 67560U 26014AA  26042.57124482  .00122731  00000+0  63061-3 0  9998
2 67560  97.2850 286.2383 0001583  88.1699 271.9751 15.80881554  4457
STARLINK-36621          
1 67561U 26016A   26042.58335648 -.00024030  00000+0 -16054-3 0  9995
2 67561  97.2836 101.7021 0001152  95.1767  75.1901 15.75211378  3857
STARLINK-36398          
1 67562U 26016B   26042.58335648  .00104108  00000+0  69222-3 0  9994
2 67562  97.2840 101.6817 0001334  95.0100  33.3892 15.75128317  3830
STARLINK-36403          
1 67563U 26016C   26042.61077781  .00156430  00000+0  80039-3 0  9994
2 67563  97.2833 101.7454 0001613  80.0236 280.1214 15.80883036  2690
STARLINK-36593          
1 67564U 26016D   26042.54625220  .00273555  00000+0  13774-2 0  9993
2 67564  97.2831 101.6794 0001328  51.7638 308.3750 15.80929377  2685
STARLINK-35725          
1 67565U 26016E   26042.60863590  .00260828  00000+0  13155-2 0  9997
2 67565  97.2835 101.7473 0001108  57.3786 302.7589 15.80925563  2699
STARLINK-36394          
1 67566U 26016F   26042.58335648 -.01057139  00000+0 -76013-2 0  9997
2 67566  97.2817 101.7222 0001752  83.0787 146.8473 15.75971760  3957
STARLINK-36352          
1 67567U 26016G   26042.60589653  .00274052  00000+0  13820-2 0  9997
2 67567  97.2784 101.7463 0001866  50.3232 309.8200 15.80895088  2699
STARLINK-36435          
1 67568U 26016H   26042.60363932  .00242785  00000+0  12291-2 0  9997
2 67568  97.2786 101.7498 0000348  88.7172 271.4136 15.80889717  2696
STARLINK-36575          
1 67569U 26016J   26042.53912358  .00203173  00000+0  10322-2 0  9993
2 67569  97.2844 101.6887 0001203 153.6784 206.4546 15.80916774  2681
STARLINK-36562          
1 67570U 26016K   26042.53819501  .00080869  00000+0  41786-3 0  9995
2 67570  97.2846 101.6893 0001724 138.7798 221.3600 15.80876544  2686
STARLINK-36578          
1 67571U 26016L   26042.58335648  .00010492  00000+0  71136-4 0  9994
2 67571  97.2841 101.7205 0001196 104.9619 113.4161 15.75186883  3835
STARLINK-36350          
1 67572U 26016M   26042.58335648 -.01204067  00000+0 -87280-2 0  9996
2 67572  97.2821 101.7367 0001461  86.1494 175.6539 15.76135647  3742
STARLINK-36588          
1 67573U 26016N   26042.58335648 -.00026772  00000+0 -17898-3 0  9990
2 67573  97.2849 101.7335 0001295  95.2864 155.0691 15.75216443  3907
STARLINK-36594          
1 67574U 26016P   26042.59680264  .00259308  00000+0  13074-2 0  9991
2 67574  97.2854 101.7611 0000923 137.0611 223.0729 15.80936622  2690
STARLINK-36400          
1 67575U 26016Q   26042.53250234  .00298644  00000+0  14967-2 0  9994
2 67575  97.2778 101.6917 0002127 289.2742  70.8296 15.80967023  2682
STARLINK-36591          
1 67576U 26016R   26042.59477438  .00206235  00000+0  10480-2 0  9999
2 67576  97.2855 101.7639 0001379  90.0595 270.0832 15.80902261  2697
STARLINK-36590          
1 67577U 26016S   26042.53051302  .00281343  00000+0  14140-2 0  9992
2 67577  97.2770 101.6927 0001608 289.5263  70.5831 15.80949923  2682
STARLINK-36613          
1 67578U 26016T   26042.52937174  .00264580  00000+0  13338-2 0  9994
2 67578  97.2859 101.6989 0000818  93.2909 266.8453 15.80926486  2687
STARLINK-36571          
1 67579U 26016U   26042.58335648 -.00753283  00000+0 -53855-2 0  9992
2 67579  97.2853 101.7566 0001596  97.7056 208.3740 15.75712487  3858
STARLINK-36612          
1 67580U 26016V   26042.59008272  .00269038  00000+0  13549-2 0  9999
2 67580  97.2856 101.7695 0001114  88.8314 271.3082 15.80938072  2696
STARLINK-36632          
1 67581U 26016W   26042.58691988  .00187973  00000+0  95734-3 0  9995
2 67581  97.2857 101.7738 0001195  78.1435 281.9967 15.80901726  2696
STARLINK-36609          
1 67582U 26016X   26042.58335648  .00121729  00000+0  80917-3 0  9998
2 67582  97.2858 101.7469 0001487 102.9520 181.5051 15.75081994  3852
STARLINK-36577          
1 67583U 26016Y   26042.58860915  .00173650  00000+0  88900-3 0  9999
2 67583  97.2860 101.7708 0001399 105.0934 255.0489 15.80825466  2696
STARLINK-36419          
1 67584U 26016Z   26042.58461412  .00158717  00000+0  81144-3 0  9999
2 67584  97.2859 101.7770 0001154  69.8602 290.2790 15.80894937  2697
STARLINK-36560          
1 67585U 26016AA  26042.58289532  .00240812  00000+0  12181-2 0  9993
2 67585  97.2857 101.7789 0001843  51.0326 309.1106 15.80914127  2692
CZ-2C DEB               
1 67586U 26009C   26042.43756826  .00078451  00000+0  38476-2 0  9998
2 67586  97.2256 115.7731 0110304 127.9337 233.1927 15.12537149  4112
CZ-2C DEB               
1 67587U 26009D   26041.15040612  .00041642  00000+0  19954-2 0  9998
2 67587  97.6723 116.0060 0107078 137.8627 223.0900 15.13784651  3921
NAVSTAR 85 (USA 581)    
1 67588U 26017A   26042.55632547 -.00000027  00000+0  00000+0 0  9999
2 67588  55.0041  93.7970 0000850  64.0319 296.0411  2.00561449429090
STARLINK-36641          
1 67589U 26018A   26042.58335648  .00098365  00000+0  50978-3 0  9990
2 67589  97.2841 107.0433 0001729 119.8756 261.9522 15.80760146  3145
STARLINK-36376          
1 67590U 26018B   26042.58335648  .00158117  00000+0  81420-3 0  9990
2 67590  97.2839 107.0458 0001683 115.7743 271.2538 15.80738687  3192
